#dP2019  7 15  0  0  0.00000000     289 d+D   IGS14 FIT AIUB
## 2062  86400.00000000   300.00000000 58679 0.0000000000000
+   91   G01G02G03G05G06G07G08G09G10G11G12G13G14G15G16G17G18
+        G19G20G21G22G23G24G25G26G27G28G29G30G31G32R01R02R03
+        R04R05R07R08R09R10R11R12R13R14R15R16R17R18R19R20R21
+        R22R23R24R26E01E02E03E04E05E07E08E09E11E12E13E14E15
+        E18E19E21E24E25E26E27E30E31E33E36C06C07C08C09C10C11
+        C12C13C14C16J01J02  0  0  0  0  0  0  0  0  0  0  0
++         5  5  5  5  5  5  5  5  5  5  5  5  5  5  5  5  5
++         5  5  5  5  5  5  5  5  5  5  5  5  5  5  5  5  5
++         5  5  5  5  5  5  5  5  5  5  5  5  5  5  5  5  5
++         5  5  5  5  5  5  5  5  5  5  5  5  5  5  5  5  5
++         5  5  5  5  5  5  5  5  5  5  5  5  5 10  5  5  5
++         5  5  5  5  5  5  0  0  0  0  0  0  0  0  0  0  0
%c M  cc GPS ccc cccc cccc cccc cccc ccccc ccccc ccccc ccccc
%c cc cc ccc ccc cccc cccc cccc cccc ccccc ccccc ccccc ccccc
%f  1.2500000  1.025000000  0.00000000000  0.000000000000000
%f  0.0000000  0.000000000  0.00000000000  0.000000000000000
%i    0    0    0    0      0      0      0      0         0
%i    0    0    0    0      0      0      0      0         0
/* CODE MGEX orbits and clocks                                                  
/* of DOY 19196                                                                 
/*                                                                              
/* PCV:IGS14      OL/AL:FES2004  NONE     YN ORB:CoN CLK:CoN                    
*  2019  7 15 18 55  0.00000000
PG01  22542.445615  14345.090937    789.942452    -68.208713
PG02  -8102.548407 -18866.115599  17536.472969   -260.849993
PG03  13086.142246  11910.914491  19791.059842    180.923642
PG05  -2975.597390 -25778.784797  -5248.005174      0.019058
PG06   6942.293945 -13235.680073  21994.224906    148.617740
PG07  22584.832498   3647.059964 -13621.140712    -65.008778
PG08  12527.204060   9880.852337 -21240.986794   -151.318625
PG09  24557.323771  -6885.373374   7391.518205    370.164930
PG10 -11446.038436  18524.396524 -15002.095796    -17.261467
PG11  22978.226611  10029.610671  -8878.423926   -560.393350
PG12 -10685.963456 -15304.650674  18744.684432    223.584606
PG13  -1849.747869 -15263.921116 -21761.108437    -54.461046
PG14 -12952.731497  17205.399400  15750.233383    -71.373939
PG15 -14390.293602  -9240.197306 -20667.339434   -300.689437
PG16     18.337849  25776.186090  -5551.604462    -56.490201
PG17  19562.281780 -15438.760056   9468.185265     89.245866
PG18  18350.730707  17617.225575  -8351.209397     70.127949
PG19  15385.838732 -16085.938804  14225.152450   -293.746478
PG20 -14374.256324   9756.018948 -20155.196047    525.972229
PG21 -20060.574739   2038.230645 -16411.683248   -154.145591
PG22  11704.982307  18601.868969  15204.317491   -731.462904
PG23  19865.820438   4026.948154  17703.793437   -177.083906
PG24 -22094.851243 -14904.261636  -2374.618233    -68.864539
PG25 -14900.460169   -676.456876  21762.427344 999999.999999
PG26  -4684.670214  25457.609855   5491.547879    252.002750
PG27   -772.703280  16263.759185 -21031.976930   -185.859036
PG28  12423.526966 -18098.332637 -14419.560579    766.401577
PG29 -24204.994912   2647.005289  10592.651097    150.597515
PG30  16337.260939  -6245.810607 -20012.376846   -143.771359
PG31  -6012.652262  14226.891922  21564.918769     24.097332
PG32 -18668.711986  16617.616468   8867.335377     -1.689595
PR01 -14459.913366   5070.360705 -20391.554950     46.741991
PR02 -14777.757713  20385.472550  -3874.320818    378.454695
PR03  -5550.330803  21093.223455  13233.789595     -1.669152
PR04   7179.293914   9045.566293  22763.100252    313.897173
PR05  15097.172691  -7319.986978  19235.054892     31.942894
PR07   5314.751230 -20948.295490 -13540.294071    -23.487840
PR08  -6622.044730  -9758.891553 -22562.354827     16.708437
PR09   3537.204679 -14567.763460 -20602.048573     80.261465
PR10  -6572.001843 -22491.256724  -9990.175816     54.462113
PR11 -14837.320350 -18921.718877   8452.224290    -72.803556
PR12 -13919.255602  -5149.676344  20780.022034     43.891793
PR13  -4566.442724  12780.518312  21586.293325    -25.971304
PR14   6856.861229  22569.367892   9750.945079     40.965798
PR15  14551.846857  19524.893068  -7582.224288    103.076373
PR16  14044.688641   4578.479010 -20783.456480      7.437951
PR17    534.058000  10646.551981 -23170.536079    243.886110
PR18  17874.344698   8026.596190 -16357.166801      0.342449
PR19  25430.124997   1786.927435   -833.121116    -42.302707
PR20  17861.365913  -6609.986601  16993.147758   -384.419194
PR21  -1368.701283 -10576.379754  23166.308220    -60.011746
PR22 -19807.468658  -7194.669591  14279.086477    -28.587275
PR23 -25024.515678   1237.025348  -4803.395074    240.861031
PR24 -16095.704706   7634.778316 -18281.836876   -182.671688
PR26  19915.241994  -5945.504873  14775.271590    -16.254588
PE01  17185.991087   2711.111425 -23946.899924   -647.748885
PE02 -17175.316056  -2630.541099  23964.685906     69.431385
PE03 -23372.828440   6890.291970 -16808.857619   -188.605609
PE04  20542.779879 -21308.654239   -182.928481   -323.982807
PE05 -12518.951394 -11723.490192 -24116.242136   -466.158516
PE07  -5587.533894  23380.995366  17291.940163   -227.044757
PE08 -20310.094256  21542.413931    323.752451   6323.484360
PE09   5444.381001 -23322.387820 -17371.971563   6377.878950
PE11  -3972.124533 -17198.917355  23747.342458   5652.898980
PE12  17939.142633 -10178.928974  21234.641688   6296.645200
PE13   3936.732688  17100.023561 -23839.024184    390.022454
PE14 -14778.799573  -8357.115203  16424.451280   -644.025746
PE15 -17525.490822  10407.354796 -21462.131008    903.086564
PE18  15797.200563  14953.692908 -24075.978276   -739.626324
PE19  22771.120541  -5135.979873  18211.610485     -5.146666
PE21  14959.809795  22280.132472 -12502.134603   -544.324051
PE24  -3881.601296 -28724.305932  -6034.381784   5975.493540
PE25 -14936.427073 -22311.656518  12454.798969   1741.618370
PE26  23066.056258  14028.557064 -12135.849566   4336.918420
PE27   3880.857558  28667.661998   6289.244739    428.426334
PE30  -9471.363456  18342.819571  21206.930467   4708.310920
PE31   9439.733378 -18209.681718 -21329.446607   -466.504086
PE33  28779.676733   2400.339458   6507.693526   -469.834803
PE36 -23151.054801 -13787.659227  12246.755986    687.121265
PC06 -23676.444129  29637.331155  18365.961423    544.927832
PC07 -11245.491244  36652.403886  18235.151726     -5.169520
PC08  -9140.358298  19808.328073 -35995.860498    168.088565
PC09 -10055.610946  29038.974878  28948.652252   -184.742522
PC10   -515.262906  42046.713762   5509.026139      9.879933
PC11 -12073.910977 -12748.707448  21752.503973    267.157552
PC12  18415.250058 -13539.561438  16008.671641    867.512479
PC13   3782.779848  26196.922204 -32699.541470   -844.573942
PC14   2642.881179 -26067.755486  -9593.239634    530.402635
PC16 -21961.093635  29919.617418  19887.899941   -890.824363
PJ01 -23504.526189  32320.231475  -8918.137917   -272.457657
PJ02 -24455.013146  22638.334020  30645.127951     -1.180304
EOF
